GLOBALSTAR M075         
1 37192U 10054E   25060.73512831 -.00000054  00000+0  27529-3 0  9992
2 37192  51.9941 148.7030 0000696 115.0183  56.9389 12.62261940662801
GLOBALSTAR M083         
1 37739U 11033A   25060.87670750 -.00000084  00000+0  11166-3 0  9990
2 37739  51.9885  10.8864 0000507  56.1689 338.8764 12.62259784633660
GLOBALSTAR M088         
1 37740U 11033B   25060.61200825 -.00000070  00000+0  18845-3 0  9992
2 37740  51.9723 277.2778 0000833  77.0991 314.7799 12.62263729628812
GLOBALSTAR M085         
1 37742U 11033D   25060.54347615 -.00000101  00000+0  17038-4 0  9994
2 37742  51.9856 191.9810 0000793  90.4247 349.0505 12.62265736630109
GLOBALSTAR M081         
1 37743U 11033E   25060.57011062 -.00000103  00000+0  46768-5 0  9997
2 37743  51.9944 194.6191 0000982  93.9856 347.2187 12.62261180630255
GLOBALSTAR M089         
1 37744U 11033F   25060.53583204 -.00000071  00000+0  18528-3 0  9991
2 37744  51.9924 148.9733 0000895 124.9734 339.9885 12.62266616631096
